NORAD_CAT_ID,OBJECT_NAME,OBJECT_TYPE,EPOCH,MEAN_MOTION,ECCENTRICITY,INCLINATION,RA_OF_ASC_NODE,ARG_OF_PERICENTER,MEAN_ANOMALY,BSTAR,MEAN_MOTION_DOT,MEAN_MOTION_DDOT,TLE_LINE0,TLE_LINE1,TLE_LINE2,SEMIMAJOR_AXIS,PERIOD,APOGEE,PERIGEE,DECAYED
51149.0,STARLINK-3360,PAYLOAD,2024-01-12 14:14:06,15.08841057,0.0001401,53.2164,242.3506,93.754,266.3612,-0.00030075,-5.071e-05,0.0,0 STARLINK-3360,1 51149U 22005AX  24012.59313225 -.00005071  00000-0 -30075-3 0  9991,2 51149  53.2164 242.3506 0001401  93.7540 266.3612 15.08841057109778,6917.877,95.437,540.711,538.773,0.0
51149.0,STARLINK-3360,PAYLOAD,2024-01-12 19:00:16,15.0883543,0.0001277,53.2166,241.4608,75.9185,284.1949,-0.0002988,-5.039e-05,0.0,0 STARLINK-3360,1 51149U 22005AX  24012.79185473 -.00005039  00000-0 -29880-3 0  9991,2 51149  53.2166 241.4608 0001277  75.9185 284.1949 15.08835430110918,6917.894,95.438,540.643,538.876,0.0
51149.0,STARLINK-3360,PAYLOAD,2024-01-12 20:35:39,15.08834447,0.0001377,53.2163,241.1632,69.9206,290.1934,-0.0002867,-4.847e-05,0.0,0 STARLINK-3360,1 51149U 22005AX  24012.85809532 -.00004847  00000-0 -28670-3 0  9999,2 51149  53.2163 241.1632 0001377  69.9206 290.1934 15.08834447109812,6917.897,95.438,540.715,538.81,0.0
51149.0,STARLINK-3360,PAYLOAD,2024-01-13 01:21:48,15.0883349,0.0001288,53.2163,240.2712,76.3647,283.7489,-0.00029018,-4.902e-05,0.0,0 STARLINK-3360,1 51149U 22005AX  24013.05681645 -.00004902  00000-0 -29018-3 0  9994,2 51149  53.2163 240.2712 0001288  76.3647 283.7489 15.08833490109846,6917.9,95.438,540.656,538.874,0.0
51149.0,STARLINK-3360,PAYLOAD,2024-01-13 20:26:26,15.08830644,0.0001116,53.2159,236.7041,82.7106,277.4013,0.0001086,1.441e-05,0.0,0 STARLINK-3360,1 51149U 22005AX  24013.85169594  .00001441  00000-0  10860-3 0  9994,2 51149  53.2159 236.7041 0001116  82.7106 277.4013 15.08830644111076,6917.909,95.438,540.546,539.002,0.0
51149.0,STARLINK-3360,PAYLOAD,2024-01-14 21:52:36,15.08846161,0.0001144,53.2147,231.9461,79.1342,280.9779,0.00046471,7.117e-05,0.0,0 STARLINK-3360,1 51149U 22005AX  24014.91153663  .00007117  00000-0  46471-3 0  9995,2 51149  53.2147 231.9461 0001144  79.1342 280.9779 15.08846161110123,6917.862,95.437,540.518,538.935,0.0
51149.0,STARLINK-3360,PAYLOAD,2024-01-15 18:32:37,15.08845392,0.0001193,53.214,228.0811,76.7999,283.3126,0.00010804,1.432e-05,0.0,0 STARLINK-3360,1 51149U 22005AX  24015.77265498  .00001432  00000-0  10804-3 0  9995,2 51149  53.2140 228.0811 0001193  76.7999 283.3126 15.08845392111362,6917.864,95.437,540.554,538.904,0.0
51149.0,STARLINK-3360,PAYLOAD,2024-01-15 20:08:00,15.08845827,0.0001203,53.2143,227.7838,76.5108,283.6018,0.000133,1.83e-05,0.0,0 STARLINK-3360,1 51149U 22005AX  24015.83889536  .00001830  00000-0  13300-3 0  9993,2 51149  53.2143 227.7838 0001203  76.5108 283.6018 15.08845827110266,6917.863,95.437,540.56,538.895,0.0
51149.0,STARLINK-3360,PAYLOAD,2024-01-16 13:37:15,15.08841605,0.0001199,53.2146,224.5111,94.5496,265.5633,-6.083e-05,-1.256e-05,0.0,0 STARLINK-3360,1 51149U 22005AX  24016.56753574 -.00001256  00000-0 -60830-4 0  9991,2 51149  53.2146 224.5111 0001199  94.5496 265.5633 15.08841605110376,6917.875,95.437,540.57,538.911,0.0
51149.0,STARLINK-3360,PAYLOAD,2024-01-16 19:58:47,15.0884487,0.0001151,53.2146,223.3204,95.788,264.3243,7.3507e-06,-1.71e-06,0.0,0 STARLINK-3360,1 51149U 22005AX  24016.83249302 -.00000171  00000-0  73507-5 0  9990,2 51149  53.2146 223.3204 0001151  95.7880 264.3243 15.08844870111523,6917.866,95.437,540.527,538.934,0.0
51149.0,STARLINK-3360,PAYLOAD,2024-01-16 23:09:33,15.08844228,0.0001115,53.2146,222.7261,96.3179,263.7941,-6.1687e-07,-2.98e-06,0.0,0 STARLINK-3360,1 51149U 22005AX  24016.96497299 -.00000298  00000-0 -61687-6 0  9992,2 51149  53.2146 222.7261 0001115  96.3179 263.7941 15.08844228110431,6917.867,95.437,540.504,538.961,0.0
51149.0,STARLINK-3360,PAYLOAD,2024-01-17 19:49:34,15.08843582,0.0001226,53.2146,218.8604,89.2864,270.8268,0.00010645,1.407e-05,0.0,0 STARLINK-3360,1 51149U 22005AX  24017.82609521  .00001407  00000-0  10645-3 0  9997,2 51149  53.2146 218.8604 0001226  89.2864 270.8268 15.08843582110560,6917.869,95.437,540.583,538.886,0.0
51149.0,STARLINK-3360,PAYLOAD,2024-01-18 13:18:49,15.08840684,0.0001282,53.2156,215.59,72.3332,287.78,8.2211e-05,1.021e-05,0.0,0 STARLINK-3360,1 51149U 22005AX  24018.55473789  .00001021  00000-0  82211-4 0  9994,2 51149  53.2156 215.5900 0001282  72.3332 287.7800 15.08840684110670,6917.878,95.438,540.63,538.856,0.0
51149.0,STARLINK-3360,PAYLOAD,2024-01-18 19:40:21,15.08841324,0.0001263,53.2155,214.4004,75.3189,284.7943,7.786e-05,9.52e-06,0.0,0 STARLINK-3360,1 51149U 22005AX  24018.81969709  .00000952  00000-0  77860-4 0  9991,2 51149  53.2155 214.4004 0001263  75.3189 284.7943 15.08841324111829,6917.876,95.437,540.615,538.868,0.0
51149.0,STARLINK-3360,PAYLOAD,2024-01-19 13:09:36,15.08837901,0.0001293,53.2155,211.1292,75.844,284.2695,4.7007e-05,4.6e-06,0.0,0 STARLINK-3360,1 51149U 22005AX  24019.54834037  .00000460  00000-0  47007-4 0  9991,2 51149  53.2155 211.1292 0001293  75.8440 284.2695 15.08837901110824,6917.887,95.438,540.646,538.857,0.0
51149.0,STARLINK-3360,PAYLOAD,2024-01-19 19:31:08,15.0883988,0.0001257,53.2155,209.9392,80.531,279.5824,5.1915e-05,5.38e-06,0.0,0 STARLINK-3360,1 51149U 22005AX  24019.81329849  .00000538  00000-0  51915-4 0  9990,2 51149  53.2155 209.9392 0001257  80.5310 279.5824 15.08839880110862,6917.881,95.438,540.615,538.876,0.0
51149.0,STARLINK-3360,PAYLOAD,2024-01-20 13:00:23,15.0883546,0.0001258,53.2152,206.668,87.1101,273.0035,3.3121e-05,2.39e-06,0.0,0 STARLINK-3360,1 51149U 22005AX  24020.54194333  .00000239  00000-0  33121-4 0  9997,2 51149  53.2152 206.6680 0001258  87.1101 273.0035 15.08835460110970,6917.894,95.438,540.63,538.889,0.0
51149.0,STARLINK-3360,PAYLOAD,2024-01-20 17:46:33,15.08836153,0.0001255,53.2154,205.7757,86.7494,273.3642,3.23e-05,2.26e-06,0.0,0 STARLINK-3360,1 51149U 22005AX  24020.74066322  .00000226  00000-0  32300-4 0  9999,2 51149  53.2154 205.7757 0001255  86.7494 273.3642 15.08836153112119,6917.892,95.438,540.625,538.889,0.0
51149.0,STARLINK-3360,PAYLOAD,2024-01-20 22:32:42,15.08837333,0.0001261,53.2154,204.8839,83.7644,276.3491,3.8906e-05,3.31e-06,0.0,0 STARLINK-3360,1 51149U 22005AX  24020.93938253  .00000331  00000-0  38906-4 0  9996,2 51149  53.2154 204.8839 0001261  83.7644 276.3491 15.08837333111037,6917.889,95.438,540.626,538.881,0.0
51149.0,STARLINK-3360,PAYLOAD,2024-01-21 19:12:43,15.0883674,0.0001267,53.2159,201.0177,82.5832,277.5304,4.0698e-05,3.6e-06,0.0,0 STARLINK-3360,1 51149U 22005AX  24021.80050571  .00000360  00000-0  40698-4 0  9994,2 51149  53.2159 201.0177 0001267  82.5832 277.5304 15.08836740112272,6917.89,95.438,540.632,538.879,0.0
51149.0,STARLINK-3360,PAYLOAD,2024-01-22 19:03:29,15.08847013,0.0001241,53.216,196.5573,82.7246,277.3887,0.00013241,1.82e-05,0.0,0 STARLINK-3360,1 51149U 22005AX  24022.79409717  .00001820  00000-0  13241-3 0  9998,2 51149  53.2160 196.5573 0001241  82.7246 277.3887 15.08847013112421,6917.859,95.437,540.582,538.865,0.0
51149.0,STARLINK-3360,PAYLOAD,2024-01-23 15:43:31,15.08837493,0.0001276,53.2162,192.6914,78.9904,281.1232,3.8684e-05,3.28e-06,0.0,0 STARLINK-3360,1 51149U 22005AX  24023.65522674  .00000328  00000-0  38684-4 0  9993,2 51149  53.2162 192.6914 0001276  78.9904 281.1232 15.08837493112557,6917.888,95.438,540.636,538.87,0.0
51149.0,STARLINK-3360,PAYLOAD,2024-01-23 18:54:17,15.08840652,0.0001358,53.2163,192.0965,76.9622,283.1522,5.8828e-05,6.48e-06,0.0,0 STARLINK-3360,1 51149U 22005AX  24023.78770375  .00000648  00000-0  58828-4 0  9997,2 51149  53.2163 192.0965 0001358  76.9622 283.1522 15.08840652111468,6917.878,95.438,540.683,538.804,0.0
51149.0,STARLINK-3360,PAYLOAD,2024-01-24 17:09:42,15.08766226,0.0001935,53.2182,187.9315,73.4085,286.712,0.0011179,0.00017512,0.0,0 STARLINK-3360,1 51149U 22005AX  24024.71507825  .00017512  00000-0  11179-2 0  9993,2 51149  53.2182 187.9315 0001935  73.4085 286.7120 15.08766226112713,6918.106,95.442,541.31,538.632,0.0
51149.0,STARLINK-3360,PAYLOAD,2024-01-25 13:49:42,15.08836516,0.0001565,53.2173,184.0774,72.7825,287.3338,6.6577e-06,-1.82e-06,0.0,0 STARLINK-3360,1 51149U 22005AX  24025.57618954 -.00000182  00000-0  66577-5 0  9995,2 51149  53.2173 184.0774 0001565  72.7825 287.3338 15.08836516111732,6917.891,95.438,540.839,538.673,0.0
51149.0,STARLINK-3360,PAYLOAD,2024-01-25 17:00:29,15.08836142,0.0001487,53.2174,183.4784,78.835,281.281,-1.4783e-06,-3.11e-06,0.0,0 STARLINK-3360,1 51149U 22005AX  24025.70866920 -.00000311  00000-0 -14783-5 0  9995,2 51149  53.2174 183.4784 0001487  78.8350 281.2810 15.08836142112868,6917.892,95.438,540.786,538.728,0.0
51149.0,STARLINK-3360,PAYLOAD,2024-01-26 13:40:29,15.08841811,0.0001481,53.2185,179.6187,96.6564,263.4597,9.592e-05,1.239e-05,0.0,0 STARLINK-3360,1 51149U 22005AX  24026.56978215  .00001239  00000-0  95920-4 0  9990,2 51149  53.2185 179.6187 0001481  96.6564 263.4597 15.08841811111887,6917.875,95.437,540.764,538.715,0.0
51149.0,STARLINK-3360,PAYLOAD,2024-01-26 16:51:15,15.08845683,0.0001511,53.2181,179.0201,91.7474,268.3691,0.00012233,1.66e-05,0.0,0 STARLINK-3360,1 51149U 22005AX  24026.70225885  .00001660  00000-0  12233-3 0  9997,2 51149  53.2181 179.0201 0001511  91.7474 268.3691 15.08845683113011,6917.863,95.437,540.773,538.683,0.0
51149.0,STARLINK-3360,PAYLOAD,2024-01-27 10:20:30,15.08834344,0.000155,53.2179,175.7421,70.3009,289.815,0.00012372,1.681e-05,0.0,0 STARLINK-3360,1 51149U 22005AX  24027.43090592  .00001681  00000-0  12372-3 0  9990,2 51149  53.2179 175.7421 0001550  70.3009 289.8150 15.08834344113127,6917.898,95.438,540.835,538.69,0.0
51149.0,STARLINK-3360,PAYLOAD,2024-01-27 13:31:16,15.08840123,0.0001745,53.2183,175.1504,109.9832,250.1348,7.3787e-05,8.86e-06,0.0,0 STARLINK-3360,1 51149U 22005AX  24027.56338321  .00000886  00000-0  73787-4 0  9993,2 51149  53.2183 175.1504 0001745 109.9832 250.1348 15.08840123112038,6917.88,95.438,540.952,538.538,0.0
